CCSDS_OMM_VERS = 2.0
CREATION_DATE  = 
ORIGINATOR     = 

OBJECT_NAME    = H-2A R/B
OBJECT_ID      = 2006-002B
CENTER_NAME    = EARTH
REF_FRAME      = TEME
TIME_SYSTEM    = UTC
MEAN_ELEMENT_THEORY = SGP/SGP4

EPOCH          = 2026-03-16T20:48:50.712768
MEAN_MOTION    = 15.16584574
ECCENTRICITY   = .0051996
INCLINATION    = 98.2417
RA_OF_ASC_NODE = 223.5098
ARG_OF_PERICENTER = 216.3088
MEAN_ANOMALY   = 143.4611

EPHEMERIS_TYPE = 0
CLASSIFICATION_TYPE = U
NORAD_CAT_ID   = 28932
ELEMENT_SET_NO = 999
REV_AT_EPOCH   = 9552
BSTAR          = .42144E-3
MEAN_MOTION_DOT = .844E-4
MEAN_MOTION_DDOT = 0

CCSDS_OMM_VERS = 2.0
CREATION_DATE  = 
ORIGINATOR     = 

OBJECT_NAME    = RESURS-DK 1
OBJECT_ID      = 2006-021A
CENTER_NAME    = EARTH
REF_FRAME      = TEME
TIME_SYSTEM    = UTC
MEAN_ELEMENT_THEORY = SGP/SGP4

EPOCH          = 2026-03-16T19:24:54.766944
MEAN_MOTION    = 15.12798052
ECCENTRICITY   = .0001128
INCLINATION    = 69.9330
RA_OF_ASC_NODE = 218.6056
ARG_OF_PERICENTER = 150.4180
MEAN_ANOMALY   = 209.7050

EPHEMERIS_TYPE = 0
CLASSIFICATION_TYPE = U
NORAD_CAT_ID   = 29228
ELEMENT_SET_NO = 999
REV_AT_EPOCH   = 8860
BSTAR          = .16832E-3
MEAN_MOTION_DOT = .2855E-4
MEAN_MOTION_DDOT = 0

CCSDS_OMM_VERS = 2.0
CREATION_DATE  = 
ORIGINATOR     = 

OBJECT_NAME    = CZ-4B R/B
OBJECT_ID      = 2006-046C
CENTER_NAME    = EARTH
REF_FRAME      = TEME
TIME_SYSTEM    = UTC
MEAN_ELEMENT_THEORY = SGP/SGP4

EPOCH          = 2026-03-16T20:45:57.344256
MEAN_MOTION    = 15.16980917
ECCENTRICITY   = .0031837
INCLINATION    = 97.5584
RA_OF_ASC_NODE = 120.7549
ARG_OF_PERICENTER = 241.2169
MEAN_ANOMALY   = 118.5865

EPHEMERIS_TYPE = 0
CLASSIFICATION_TYPE = U
NORAD_CAT_ID   = 29507
ELEMENT_SET_NO = 999
REV_AT_EPOCH   = 6113
BSTAR          = .21528E-3
MEAN_MOTION_DOT = .4235E-4
MEAN_MOTION_DDOT = 0

CCSDS_OMM_VERS = 2.0
CREATION_DATE  = 
ORIGINATOR     = 

OBJECT_NAME    = CZ-2C R/B
OBJECT_ID      = 2007-010B
CENTER_NAME    = EARTH
REF_FRAME      = TEME
TIME_SYSTEM    = UTC
MEAN_ELEMENT_THEORY = SGP/SGP4

EPOCH          = 2026-03-16T20:11:33.723456
MEAN_MOTION    = 14.20248825
ECCENTRICITY   = .005783
INCLINATION    = 98.3985
RA_OF_ASC_NODE = 188.7618
ARG_OF_PERICENTER = 273.4232
MEAN_ANOMALY   = 86.0331

EPHEMERIS_TYPE = 0
CLASSIFICATION_TYPE = U
NORAD_CAT_ID   = 31114
ELEMENT_SET_NO = 999
REV_AT_EPOCH   = 98073
BSTAR          = .70151E-4
MEAN_MOTION_DOT = .111E-5
MEAN_MOTION_DDOT = 0

CCSDS_OMM_VERS = 2.0
CREATION_DATE  = 
ORIGINATOR     = 

OBJECT_NAME    = COSMO-SKYMED 1
OBJECT_ID      = 2007-023A
CENTER_NAME    = EARTH
REF_FRAME      = TEME
TIME_SYSTEM    = UTC
MEAN_ELEMENT_THEORY = SGP/SGP4

EPOCH          = 2026-03-16T19:38:46.264992
MEAN_MOTION    = 14.96598159
ECCENTRICITY   = .0001584
INCLINATION    = 97.8881
RA_OF_ASC_NODE = 266.9085
ARG_OF_PERICENTER = 91.3236
MEAN_ANOMALY   = 268.8167

EPHEMERIS_TYPE = 0
CLASSIFICATION_TYPE = U
NORAD_CAT_ID   = 31598
ELEMENT_SET_NO = 999
REV_AT_EPOCH   = 1597
BSTAR          = .32399E-3
MEAN_MOTION_DOT = .363E-4
MEAN_MOTION_DDOT = 0

CCSDS_OMM_VERS = 2.0
CREATION_DATE  = 
ORIGINATOR     = 

OBJECT_NAME    = COSMOS 2428
OBJECT_ID      = 2007-029A
CENTER_NAME    = EARTH
REF_FRAME      = TEME
TIME_SYSTEM    = UTC
MEAN_ELEMENT_THEORY = SGP/SGP4

EPOCH          = 2026-03-16T14:44:28.779072
MEAN_MOTION    = 14.12947222
ECCENTRICITY   = .000939
INCLINATION    = 70.9439
RA_OF_ASC_NODE = 188.8098
ARG_OF_PERICENTER = 270.0339
MEAN_ANOMALY   = 89.9706

EPHEMERIS_TYPE = 0
CLASSIFICATION_TYPE = U
NORAD_CAT_ID   = 31792
ELEMENT_SET_NO = 999
REV_AT_EPOCH   = 96507
BSTAR          = .1571E-4
MEAN_MOTION_DOT = -.19E-6
MEAN_MOTION_DDOT = 0

CCSDS_OMM_VERS = 2.0
CREATION_DATE  = 
ORIGINATOR     = 

OBJECT_NAME    = SL-16 R/B
OBJECT_ID      = 2007-029B
CENTER_NAME    = EARTH
REF_FRAME      = TEME
TIME_SYSTEM    = UTC
MEAN_ELEMENT_THEORY = SGP/SGP4

EPOCH          = 2026-03-15T15:55:56.073216
MEAN_MOTION    = 14.14835963
ECCENTRICITY   = .00022711
INCLINATION    = 70.9757
RA_OF_ASC_NODE = 159.8277
ARG_OF_PERICENTER = 276.2076
MEAN_ANOMALY   = 246.2511

EPHEMERIS_TYPE = 0
CLASSIFICATION_TYPE = U
NORAD_CAT_ID   = 31793
ELEMENT_SET_NO = 999
REV_AT_EPOCH   = 96621
BSTAR          = .16674816E-3
MEAN_MOTION_DOT = .274E-5
MEAN_MOTION_DDOT = 0

CCSDS_OMM_VERS = 2.0
CREATION_DATE  = 
ORIGINATOR     = 

OBJECT_NAME    = KORONAS-FOTON
OBJECT_ID      = 2009-003A
CENTER_NAME    = EARTH
REF_FRAME      = TEME
TIME_SYSTEM    = UTC
MEAN_ELEMENT_THEORY = SGP/SGP4

EPOCH          = 2026-03-16T05:56:43.516896
MEAN_MOTION    = 15.43485725
ECCENTRICITY   = .00116723
INCLINATION    = 82.4272
RA_OF_ASC_NODE = 269.0586
ARG_OF_PERICENTER = 128.1379
MEAN_ANOMALY   = 232.0922

EPHEMERIS_TYPE = 0
CLASSIFICATION_TYPE = U
NORAD_CAT_ID   = 33504
ELEMENT_SET_NO = 999
REV_AT_EPOCH   = 94675
BSTAR          = .29987924E-3
MEAN_MOTION_DOT = .13504E-3
MEAN_MOTION_DDOT = 0

CCSDS_OMM_VERS = 2.0
CREATION_DATE  = 
ORIGINATOR     = 

OBJECT_NAME    = CZ-2C R/B
OBJECT_ID      = 2011-030B
CENTER_NAME    = EARTH
REF_FRAME      = TEME
TIME_SYSTEM    = UTC
MEAN_ELEMENT_THEORY = SGP/SGP4

EPOCH          = 2026-03-16T20:01:06.461184
MEAN_MOTION    = 14.81249910
ECCENTRICITY   = .0051806
INCLINATION    = 97.8556
RA_OF_ASC_NODE = 32.9547
ARG_OF_PERICENTER = 328.6629
MEAN_ANOMALY   = 60.9290

EPHEMERIS_TYPE = 0
CLASSIFICATION_TYPE = U
NORAD_CAT_ID   = 37731
ELEMENT_SET_NO = 999
REV_AT_EPOCH   = 79115
BSTAR          = .19564E-3
MEAN_MOTION_DOT = .1505E-4
MEAN_MOTION_DDOT = 0

CCSDS_OMM_VERS = 2.0
CREATION_DATE  = 
ORIGINATOR     = 

OBJECT_NAME    = H-2A R/B
OBJECT_ID      = 2012-025E
CENTER_NAME    = EARTH
REF_FRAME      = TEME
TIME_SYSTEM    = UTC
MEAN_ELEMENT_THEORY = SGP/SGP4

EPOCH          = 2026-03-16T21:20:23.139744
MEAN_MOTION    = 14.95221717
ECCENTRICITY   = .0043294
INCLINATION    = 98.4735
RA_OF_ASC_NODE = 43.5121
ARG_OF_PERICENTER = 290.0304
MEAN_ANOMALY   = 69.6256

EPHEMERIS_TYPE = 0
CLASSIFICATION_TYPE = U
NORAD_CAT_ID   = 38341
ELEMENT_SET_NO = 999
REV_AT_EPOCH   = 74929
BSTAR          = .21634E-3
MEAN_MOTION_DOT = .2352E-4
MEAN_MOTION_DDOT = 0

CCSDS_OMM_VERS = 2.0
CREATION_DATE  = 
ORIGINATOR     = 

OBJECT_NAME    = SHIJIAN-16 (SJ-16)
OBJECT_ID      = 2013-057A
CENTER_NAME    = EARTH
REF_FRAME      = TEME
TIME_SYSTEM    = UTC
MEAN_ELEMENT_THEORY = SGP/SGP4

EPOCH          = 2026-03-16T20:51:34.704288
MEAN_MOTION    = 14.92380489
ECCENTRICITY   = .0015391
INCLINATION    = 74.9736
RA_OF_ASC_NODE = 171.4977
ARG_OF_PERICENTER = 94.0721
MEAN_ANOMALY   = 266.2227

EPHEMERIS_TYPE = 0
CLASSIFICATION_TYPE = U
NORAD_CAT_ID   = 39358
ELEMENT_SET_NO = 999
REV_AT_EPOCH   = 67257
BSTAR          = .22533E-3
MEAN_MOTION_DOT = .2283E-4
MEAN_MOTION_DDOT = 0

CCSDS_OMM_VERS = 2.0
CREATION_DATE  = 
ORIGINATOR     = 

OBJECT_NAME    = SL-4 R/B
OBJECT_ID      = 2014-021B
CENTER_NAME    = EARTH
REF_FRAME      = TEME
TIME_SYSTEM    = UTC
MEAN_ELEMENT_THEORY = SGP/SGP4

EPOCH          = 2026-03-16T21:36:10.558080
MEAN_MOTION    = 15.39425848
ECCENTRICITY   = .0096865
INCLINATION    = 51.6064
RA_OF_ASC_NODE = 302.0970
ARG_OF_PERICENTER = 129.3087
MEAN_ANOMALY   = 231.6536

EPHEMERIS_TYPE = 0
CLASSIFICATION_TYPE = U
NORAD_CAT_ID   = 39679
ELEMENT_SET_NO = 999
REV_AT_EPOCH   = 65738
BSTAR          = .30655E-3
MEAN_MOTION_DOT = .13942E-3
MEAN_MOTION_DDOT = 0

